FLOCK 4G-8              
1 62613U 25009E   26068.72381419  .00013559  00000+0  50438-3 0  9996
2 62613  97.4045 151.2834 0003050 315.2538  44.8455 15.27623414 63721
STARLINK-34057          
1 63814U 25092L   26068.33418944  .00028696  00000+0  10480-2 0  9993
2 63814  42.9942 174.2620 0000957 168.9023 191.1850 15.27586967 48560
